STARLINK-3075_new
1 19409C 21104B   21326.14935254 -.00824980  00000-0 -31220-2 0  3268
2 19409  53.2177  90.8350 0024810  65.3903 236.5057 15.87253236    10
STARLINK-3075_old
1 29409C 21104B   21325.07625132 -.00864681  00000-0 -29137-2 0  3255
2 29409  53.2177  96.2648 0032959  63.6238 218.9352 15.89192865    19
